{"type": "FeatureCollection", "features": [ {"type": "Feature", "properties": {"norad_id": 35442, "name": "COSMOS 2251 DEB", "group": "cosmos-2251-debris", "lat": -51.4789836875538, "lon": -50.68459546106594, "alt_km": 624.3399340309952, "timestamp": "2025-12-08T03:50:07.392185+00:00", "meta": {"OBJECT_NAME": "COSMOS 2251 DEB", "OBJECT_ID": "1993-036AKL", "EPOCH": "2025-12-06T15:11:28.207968", "MEAN_MOTION": 14.84048486, "ECCENTRICITY": 0.00042143, "INCLINATION": 74.0268, "RA_OF_ASC_NODE": 111.2533, "ARG_OF_PERICENTER": 115.5873, "MEAN_ANOMALY": 244.5741, "EPHEMERIS_TYPE": 0, "CLASSIFICATION_TYPE": "U", "NORAD_CAT_ID": 35442, "ELEMENT_SET_NO": 999, "REV_AT_EPOCH": 87262, "BSTAR": 0.0050286064, "MEAN_MOTION_DOT": 0.00042157, "MEAN_MOTION_DDOT": 0}, "tle": {"line1": "1 35442U 93036AKL 25340.63296537  .00042157  00000+0  50286-2 0  9995", "line2": "2 35442  74.0268 111.2533 0004214 115.5873 244.5741 14.84048486872623"}}, "geometry": {"type": "Point", "coordinates": [-50.68459546106594, -51.4789836875538]}}, {"type": "Feature", "properties": {"norad_id": 35443, "name": "COSMOS 2251 DEB", "group": "cosmos-2251-debris", "lat": 62.42944746227317, "lon": 14.249949199915037, "alt_km": 544.2089614788865, "timestamp": "2025-12-08T03:50:07.392196+00:00", "meta": {"OBJECT_NAME": "COSMOS 2251 DEB", "OBJECT_ID": "1993-036AKM", "EPOCH": "2025-12-07T06:40:22.370016", "MEAN_MOTION": 14.96055999, "ECCENTRICITY": 0.00734187, "INCLINATION": 73.986, "RA_OF_ASC_NODE": 342.6647, "ARG_OF_PERICENTER": 126.2083, "MEAN_ANOMALY": 234.592, "EPHEMERIS_TYPE": 0, "CLASSIFICATION_TYPE": "U", "NORAD_CAT_ID": 35443, "ELEMENT_SET_NO": 999, "REV_AT_EPOCH": 86796, "BSTAR": 0.0051168321, "MEAN_MOTION_DOT": 0.0006117, "MEAN_MOTION_DDOT": 0}, "tle": {"line1": "1 35443U 93036AKM 25341.27803669  .00061170  00000+0  51168-2 0  9993", "line2": "2 35443  73.9860 342.6647 0073418 126.2083 234.5920 14.96055999867969"}}, "geometry": {"type": "Point", "coordinates": [14.249949199915037, 62.42944746227317]}}, {"type": "Feature", "properties": {"norad_id": 35445, "name": "COSMOS 2251 DEB", "group": "cosmos-2251-debris", "lat": -4.058710035278366, "lon": -52.42808705789554, "alt_km": 622.2050785596093, "timestamp": "2025-12-08T03:50:07.392206+00:00", "meta": {"OBJECT_NAME": "COSMOS 2251 DEB", "OBJECT_ID": "1993-036AKP", "EPOCH": "2025-12-06T22:13:57.265536", "MEAN_MOTION": 14.58958102, "ECCENTRICITY": 0.01436286, "INCLINATION": 74.0374, "RA_OF_ASC_NODE": 311.0852, "ARG_OF_PERICENTER": 39.494, "MEAN_ANOMALY": 321.6585, "EPHEMERIS_TYPE": 0, "CLASSIFICATION_TYPE": "U", "NORAD_CAT_ID": 35445, "ELEMENT_SET_NO": 999, "REV_AT_EPOCH": 87244, "BSTAR": 0.0028679894, "MEAN_MOTION_DOT": 0.00015537, "MEAN_MOTION_DDOT": 0}, "tle": {"line1": "1 35445U 93036AKP 25340.92635724  .00015537  00000+0  28680-2 0  9990", "line2": "2 35445  74.0374 311.0852 0143628  39.4940 321.6585 14.58958102872449"}}, "geometry": {"type": "Point", "coordinates": [-52.42808705789554, -4.058710035278366]}}, {"type": "Feature", "properties": {"norad_id": 35446, "name": "COSMOS 2251 DEB", "group": "cosmos-2251-debris", "lat": 67.01994215932378, "lon": 104.42401711338482, "alt_km": 654.1762132340773, "timestamp": "2025-12-08T03:50:07.392216+00:00", "meta": {"OBJECT_NAME": "COSMOS 2251 DEB", "OBJECT_ID": "1993-036AKQ", "EPOCH": "2025-12-05T17:34:52.262112", "MEAN_MOTION": 14.54618421, "ECCENTRICITY": 0.00744002, "INCLINATION": 74.0466, "RA_OF_ASC_NODE": 331.4309, "ARG_OF_PERICENTER": 91.6694, "MEAN_ANOMALY": 269.2992, "EPHEMERIS_TYPE": 0, "CLASSIFICATION_TYPE": "U", "NORAD_CAT_ID": 35446, "ELEMENT_SET_NO": 999, "REV_AT_EPOCH": 87906, "BSTAR": 0.00018901942, "MEAN_MOTION_DOT": 8.08e-06, "MEAN_MOTION_DDOT": 0}, "tle": {"line1": "1 35446U 93036AKQ 25339.73254933  .00000808  00000+0  18902-3 0  9999", "line2": "2 35446  74.0466 331.4309 0074400  91.6694 269.2992 14.54618421879069"}}, "geometry": {"type": "Point", "coordinates": [104.42401711338482, 67.01994215932378]}}, {"type": "Feature", "properties": {"norad_id": 35448, "name": "COSMOS 2251 DEB", "group": "cosmos-2251-debris", "lat": -27.12684157637055, "lon": 89.73186438673008, "alt_km": 712.6258257718091, "timestamp": "2025-12-08T03:50:07.392226+00:00", "meta": {"OBJECT_NAME": "COSMOS 2251 DEB", "OBJECT_ID": "1993-036AKS", "EPOCH": "2025-12-05T14:52:31.418112", "MEAN_MOTION": 14.54160371, "ECCENTRICITY": 0.00112149, "INCLINATION": 73.9027, "RA_OF_ASC_NODE": 103.0785, "ARG_OF_PERICENTER": 283.351, "MEAN_ANOMALY": 76.6401, "EPHEMERIS_TYPE": 0, "CLASSIFICATION_TYPE": "U", "NORAD_CAT_ID": 35448, "ELEMENT_SET_NO": 999, "REV_AT_EPOCH": 87231, "BSTAR": 0.0022626974, "MEAN_MOTION_DOT": 9.564e-05, "MEAN_MOTION_DDOT": 0}, "tle": {"line1": "1 35448U 93036AKS 25339.61980808  .00009564  00000+0  22627-2 0  9991", "line2": "2 35448  73.9027 103.0785 0011214 283.3510  76.6401 14.54160371872316"}}, "geometry": {"type": "Point", "coordinates": [89.73186438673008, -27.12684157637055]}}, {"type": "Feature", "properties": {"norad_id": 35451, "name": "COSMOS 2251 DEB", "group": "cosmos-2251-debris", "lat": 71.32666105181198, "lon": -125.96629099350108, "alt_km": 458.635464631634, "timestamp": "2025-12-08T03:50:07.392236+00:00", "meta": {"OBJECT_NAME": "COSMOS 2251 DEB", "OBJECT_ID": "1993-036AKV", "EPOCH": "2025-12-06T15:25:27.582240", "MEAN_MOTION": 15.34695417, "ECCENTRICITY": 0.00402272, "INCLINATION": 73.932, "RA_OF_ASC_NODE": 115.8295, "ARG_OF_PERICENTER": 3.0186, "MEAN_ANOMALY": 357.1253, "EPHEMERIS_TYPE": 0, "CLASSIFICATION_TYPE": "U", "NORAD_CAT_ID": 35451, "ELEMENT_SET_NO": 999, "REV_AT_EPOCH": 67312, "BSTAR": 0.0023728301, "MEAN_MOTION_DOT": 0.00082777, "MEAN_MOTION_DDOT": 0}, "tle": {"line1": "1 35451U 93036AKV 25340.64268035  .00082777  00000+0  23728-2 0  9991", "line2": "2 35451  73.9320 115.8295 0040227   3.0186 357.1253 15.34695417673128"}}, "geometry": {"type": "Point", "coordinates": [-125.96629099350108, 71.32666105181198]}}, {"type": "Feature", "properties": {"norad_id": 35453, "name": "COSMOS 2251 DEB", "group": "cosmos-2251-debris", "lat": -62.103476410256974, "lon": -3.96715682082679, "alt_km": 802.699897982653, "timestamp": "2025-12-08T03:50:07.392246+00:00", "meta": {"OBJECT_NAME": "COSMOS 2251 DEB", "OBJECT_ID": "1993-036AKX", "EPOCH": "2025-12-02T12:53:58.122528", "MEAN_MOTION": 14.3790654, "ECCENTRICITY": 0.00680216, "INCLINATION": 74.0102, "RA_OF_ASC_NODE": 39.1945, "ARG_OF_PERICENTER": 175.6131, "MEAN_ANOMALY": 184.5634, "EPHEMERIS_TYPE": 0, "CLASSIFICATION_TYPE": "U", "NORAD_CAT_ID": 35453, "ELEMENT_SET_NO": 999, "REV_AT_EPOCH": 86072, "BSTAR": 0.00098540606, "MEAN_MOTION_DOT": 3.03e-05, "MEAN_MOTION_DDOT": 0}, "tle": {"line1": "1 35453U 93036AKX 25336.53747827  .00003030  00000+0  98541-3 0  9998", "line2": "2 35453  74.0102  39.1945 0068021 175.6131 184.5634 14.37906540860721"}}, "geometry": {"type": "Point", "coordinates": [-3.96715682082679, -62.103476410256974]}}, {"type": "Feature", "properties": {"norad_id": 35455, "name": "COSMOS 2251 DEB", "group": "cosmos-2251-debris", "lat": -41.14897118223668, "lon": -71.09077235208002, "alt_km": 734.8214680623078, "timestamp": "2025-12-08T03:50:07.392256+00:00", "meta": {"OBJECT_NAME": "COSMOS 2251 DEB", "OBJECT_ID": "1993-036AKZ", "EPOCH": "2025-12-05T08:06:37.888128", "MEAN_MOTION": 14.49263122, "ECCENTRICITY": 0.0098804, "INCLINATION": 74.0283, "RA_OF_ASC_NODE": 308.6971, "ARG_OF_PERICENTER": 54.0721, "MEAN_ANOMALY": 306.9556, "EPHEMERIS_TYPE": 0, "CLASSIFICATION_TYPE": "U", "NORAD_CAT_ID": 35455, "ELEMENT_SET_NO": 999, "REV_AT_EPOCH": 86436, "BSTAR": 0.0027436802, "MEAN_MOTION_DOT": 0.00011124, "MEAN_MOTION_DDOT": 0}, "tle": {"line1": "1 35455U 93036AKZ 25339.33793852  .00011124  00000+0  27437-2 0  9998", "line2": "2 35455  74.0283 308.6971 0098804  54.0721 306.9556 14.49263122864365"}}, "geometry": {"type": "Point", "coordinates": [-71.09077235208002, -41.14897118223668]}}, {"type": "Feature", "properties": {"norad_id": 35456, "name": "COSMOS 2251 DEB", "group": "cosmos-2251-debris", "lat": -9.993487147530205, "lon": 123.48424896011565, "alt_km": 622.2023309742826, "timestamp": "2025-12-08T03:50:07.392266+00:00", "meta": {"OBJECT_NAME": "COSMOS 2251 DEB", "OBJECT_ID": "1993-036ALA", "EPOCH": "2025-12-07T03:22:12.468576", "MEAN_MOTION": 14.69256642, "ECCENTRICITY": 0.00654204, "INCLINATION": 73.9498, "RA_OF_ASC_NODE": 128.3758, "ARG_OF_PERICENTER": 339.4752, "MEAN_ANOMALY": 20.379, "EPHEMERIS_TYPE": 0, "CLASSIFICATION_TYPE": "U", "NORAD_CAT_ID": 35456, "ELEMENT_SET_NO": 999, "REV_AT_EPOCH": 65793, "BSTAR": 0.0025838045, "MEAN_MOTION_DOT": 0.00015747, "MEAN_MOTION_DDOT": 0}, "tle": {"line1": "1 35456U 93036ALA 25341.14042209  .00015747  00000+0  25838-2 0  9992", "line2": "2 35456  73.9498 128.3758 0065420 339.4752  20.3790 14.69256642657935"}}, "geometry": {"type": "Point", "coordinates": [123.48424896011565, -9.993487147530205]}}, {"type": "Feature", "properties": {"norad_id": 35459, "name": "COSMOS 2251 DEB", "group": "cosmos-2251-debris", "lat": 2.695111741715375, "lon": 15.01731519211379, "alt_km": 759.1098351659139, "timestamp": "2025-12-08T03:50:07.392276+00:00", "meta": {"OBJECT_NAME": "COSMOS 2251 DEB", "OBJECT_ID": "1993-036ALD", "EPOCH": "2025-12-05T21:33:57.544416", "MEAN_MOTION": 14.37446258, "ECCENTRICITY": 0.00165225, "INCLINATION": 73.8704, "RA_OF_ASC_NODE": 199.9991, "ARG_OF_PERICENTER": 150.1634, "MEAN_ANOMALY": 210.0464, "EPHEMERIS_TYPE": 0, "CLASSIFICATION_TYPE": "U", "NORAD_CAT_ID": 35459, "ELEMENT_SET_NO": 999, "REV_AT_EPOCH": 58263, "BSTAR": 0.00040904083, "MEAN_MOTION_DOT": 1.198e-05, "MEAN_MOTION_DDOT": 0}, "tle": {"line1": "1 35459U 93036ALD 25339.89858269  .00001198  00000+0  40904-3 0  9992", "line2": "2 35459  73.8704 199.9991 0016522 150.1634 210.0464 14.37446258582635"}}, "geometry": {"type": "Point", "coordinates": [15.01731519211379, 2.695111741715375]}}]}